CCSDS_OEM_VERS = 2.0

COMMENT Orbit data are consistent with planetary ephemeris DE-430

CREATION_DATE  = 2020-06-01T01:26:47
ORIGINATOR     = Test

META_START
OBJECT_NAME          = TEST_OBJ
OBJECT_ID            = 0000-000A
CENTER_NAME          = Earth
REF_FRAME            = ICRF
TIME_SYSTEM          = UTC
START_TIME           = 2020-06-01T12:00:00.000000
USEABLE_START_TIME   = 2020-06-01T12:00:00.000000
USEABLE_STOP_TIME    = 2020-06-01T13:00:00.000000
STOP_TIME            = 2020-06-01T13:00:00.000000
INTERPOLATION        = Lagrange
INTERPOLATION_DEGREE = 5
META_STOP

COMMENT Vehicle's position at any requested time was actually computed using an algorithm, not an interpolation of a table of ephemeris.

2020-06-01T12:36:00.000000   6.156010601642023e+03  -1.693084365195282e+04   1.997516975094290e+04   2.623966123658874e+00   2.478946793596351e+00   1.264298543563530e+00  -1.260539040344952e-04   3.466852634369750e-04  -4.090995288848274e-04
2020-06-01T12:37:00.000000   6.313219235505093e+03  -1.678148450899244e+04   2.005029071319476e+04   2.616305735273984e+00   2.499657722775519e+00   1.239704555202849e+00  -1.292910175901447e-04   3.436748245223444e-04  -4.106953137025108e-04
2020-06-01T12:38:00.000000   6.469962427044092e+03  -1.663088814447670e+04   2.012393317862290e+04   2.608451366650518e+00   2.520187268203965e+00   1.215015679450308e+00  -1.325198760294897e-04   3.406391689070387e-04  -4.122624220138720e-04
2020-06-01T12:39:00.000000   6.626228552416146e+03  -1.647906548673864e+04   2.019609150561132e+04   2.600403519565920e+00   2.540533922384451e+00   1.190233640470193e+00  -1.357402637019702e-04   3.375784803485689e-04  -4.138007349226742e-04
2020-06-01T12:40:00.000000   6.782006018272737e+03  -1.632602755423104e+04   2.026676015620856e+04   2.592162708730955e+00   2.560696188892719e+00   1.165360169518264e+00  -1.389519651481803e-04   3.344929441889953e-04  -4.153101349456042e-04
2020-06-01T12:41:00.000000   6.937283262535509e+03  -1.617178545485861e+04   2.033593369655107e+04   2.583729461778121e+00   2.580672582472443e+00   1.140397004856731e+00  -1.421547651030790e-04   3.313827473480167e-04  -4.167905060165924e-04
2020-06-01T12:42:00.000000   7.092048755169611e+03  -1.601635038530634e+04   2.040360679728065e+04   2.575104319249722e+00   2.600461629129870e+00   1.115345891669023e+00  -1.453484485088379e-04   3.282480783288555e-04  -4.182417334985234e-04
2020-06-01T12:43:00.000000   7.246290998959858e+03  -1.585973363035950e+04   2.046977423395761e+04   2.566287834585122e+00   2.620061866228922e+00   1.090208581973735e+00  -1.485328005197124e-04   3.250891272132568e-04  -4.196637041883282e-04
2020-06-01T12:44:00.000000   7.399998530282830e+03  -1.570194656222045e+04   2.053443088746797e+04   2.557280574107845e+00   2.639471842585772e+00   1.064986834538419e+00  -1.517076065142890e-04   3.219060856653928e-04  -4.210563063274085e-04
2020-06-01T12:45:00.000000   7.553159919881480e+03  -1.554300063981730e+04   2.059757174442604e+04   2.548083117011879e+00   2.658690118563820e+00   1.039682414792554e+00  -1.548726520944370e-04   3.186991469229652e-04  -4.224194296107027e-04
2020-06-01T12:46:00.000000   7.705763773634502e+03  -1.538290740810954e+04   2.065919189757169e+04   2.538696055348124e+00   2.677715266167938e+00   1.014297094740180e+00  -1.580277231023652e-04   3.154685058030178e-04  -4.237529651917595e-04
2020-06-01T12:47:00.000000   7.857798733329552e+03  -1.522167849738587e+04   2.071928654616173e+04   2.529119994009532e+00   2.696545869139412e+00   9.888326528720883e-01  -1.611726056232334e-04   3.122143586974182e-04  -4.250568056954650e-04
2020-06-01T12:48:00.000000   8.009253477431860e+03  -1.505932562255743e+04   2.077785099635710e+04   2.519355550716558e+00   2.715180523050159e+00   9.632908740772080e-01  -1.643070859922653e-04   3.089369035704692e-04  -4.263308452255102e-04
2020-06-01T12:49:00.000000   8.160116721854049e+03  -1.489586058244505e+04   2.083488066160379e+04   2.509403356001620e+00   2.733617835397270e+00   9.376735495537264e-01  -1.674309508127747e-04   3.056363399656694e-04  -4.275749793714557e-04
2020-06-01T12:50:00.000000   8.310377220725532e+03  -1.473129525906041e+04   2.089037106300874e+04   2.499264053192973e+00   2.751856425697556e+00   9.119824767196185e-01  -1.705439869468879e-04   3.023128689897379e-04  -4.287891052191919e-04
2020-06-01T12:51:00.000000   8.460023767156443e+03  -1.456564161688369e+04   2.094431782971037e+04   2.488938298398967e+00   2.769894925581274e+00   8.862194591225586e-01  -1.736459815417826e-04   2.989666933269455e-04  -4.299731213614709e-04
2020-06-01T12:52:00.000000   8.609045194008550e+03  -1.439891170213118e+04   2.099671669924392e+04   2.478426760490327e+00   2.787731978887049e+00   8.603863063492648e-01  -1.767367220292788e-04   2.955980172295847e-04  -4.311269279043729e-04
2020-06-01T12:53:00.000000   8.757430374657477e+03  -1.423111764202187e+04   2.104756351790075e+04   2.467730121083254e+00   2.805366241755531e+00   8.344848339344468e-01  -1.798159961375456e-04   2.922070465195365e-04  -4.322504264786368e-04
2020-06-01T12:54:00.000000   8.905168223758536e+03  -1.406227164403533e+04   2.109685424108278e+04   2.456849074521199e+00   2.822796382723679e+00   8.085168632690279e-01  -1.828835918890406e-04   2.887939885765776e-04  -4.333435202455370e-04
2020-06-01T12:55:00.000000   9.052247698006515e+03  -1.389238599516763e+04   2.114458493365069e+04   2.445784327856984e+00   2.840021082818166e+00   7.824842215080317e-01  -1.859392976301930e-04   2.853590523566858e-04  -4.344061139122106e-04
2020-06-01T12:56:00.000000   9.198657796903473e+03  -1.372147306117462e+04   2.119075177026769e+04   2.434536600832811e+00   2.857039035650168e+00   7.563887414774545e-01  -1.889829020224099e-04   2.819024483738775e-04  -4.354381137376154e-04
2020-06-01T12:57:00.000000   9.344387563514483e+03  -1.354954528581780e+04   2.123535103573640e+04   2.423106625861596e+00   2.873848947508301e+00   7.302322615810751e-01  -1.920141940612776e-04   2.784243887059745e-04  -4.364394275385823e-04
2020-06-01T12:58:00.000000   9.489426085230096e+03  -1.337661519009926e+04   2.127837912533083e+04   2.411495148006245e+00   2.890449537452799e+00   7.040166257065109e-01  -1.950329630741885e-04   2.749250869862405e-04  -4.374099647086078e-04
2020-06-01T12:59:00.000000   9.633762494522583e+03  -1.320269537149316e+04   2.131983254512291e+04   2.399702924959699e+00   2.906839537408585e+00   6.777436831303489e-01  -1.980389987482998e-04   2.714047584139894e-04  -4.383496362177999e-04
2020-06-01T13:00:00.000000   9.777385969706267e+03  -1.302779850316984e+04   2.135970791230246e+04   2.387730727022708e+00   2.923017692259432e+00   6.514152884233598e-01  -2.010320911238022e-04   2.678636197418034e-04  -4.392583546315799e-04
